[{"OBJECT_NAME":"ONEWEB-0083","OBJECT_ID":"2020-020M","EPOCH":"2026-01-01T04:40:44.544864","MEAN_MOTION":13.11417257,"ECCENTRICITY":0.00017041,"INCLINATION":87.8844,"RA_OF_ASC_NODE":54.3019,"ARG_OF_PERICENTER":98.0642,"MEAN_ANOMALY":262.0679,"EPHEMERIS_TYPE":0,"CLASSIFICATION_TYPE":"U","NORAD_CAT_ID":45435,"ELEMENT_SET_NO":999,"REV_AT_EPOCH":28078,"BSTAR":0.0010754605,"MEAN_MOTION_DOT":3.94e-6,"MEAN_MOTION_DDOT":0},{"OBJECT_NAME":"ONEWEB-0095","OBJECT_ID":"2020-020N","EPOCH":"2026-01-01T04:27:30.051072","MEAN_MOTION":13.11419186,"ECCENTRICITY":0.00018903,"INCLINATION":87.8841,"RA_OF_ASC_NODE":54.3142,"ARG_OF_PERICENTER":124.3382,"MEAN_ANOMALY":235.7925,"EPHEMERIS_TYPE":0,"CLASSIFICATION_TYPE":"U","NORAD_CAT_ID":45436,"ELEMENT_SET_NO":999,"REV_AT_EPOCH":28078,"BSTAR":8.149019e-6,"MEAN_MOTION_DOT":1.6e-7,"MEAN_MOTION_DDOT":0},{"OBJECT_NAME":"ONEWEB-0092","OBJECT_ID":"2020-020P","EPOCH":"2026-01-01T03:47:01.384224","MEAN_MOTION":13.1141465,"ECCENTRICITY":0.00018335,"INCLINATION":87.8837,"RA_OF_ASC_NODE":54.3188,"ARG_OF_PERICENTER":107.3379,"MEAN_ANOMALY":252.7949,"EPHEMERIS_TYPE":0,"CLASSIFICATION_TYPE":"U","NORAD_CAT_ID":45437,"ELEMENT_SET_NO":999,"REV_AT_EPOCH":28089,"BSTAR":-0.0008126122,"MEAN_MOTION_DOT":-2.75e-6,"MEAN_MOTION_DDOT":0},{"OBJECT_NAME":"ONEWEB-0085","OBJECT_ID":"2020-020Q","EPOCH":"2026-01-01T04:39:30.868128","MEAN_MOTION":13.11417488,"ECCENTRICITY":0.00017879,"INCLINATION":87.8837,"RA_OF_ASC_NODE":54.3195,"ARG_OF_PERICENTER":100.1489,"MEAN_ANOMALY":259.9841,"EPHEMERIS_TYPE":0,"CLASSIFICATION_TYPE":"U","NORAD_CAT_ID":45438,"ELEMENT_SET_NO":999,"REV_AT_EPOCH":28078,"BSTAR":0.00080920389,"MEAN_MOTION_DOT":3.0e-6,"MEAN_MOTION_DDOT":0},{"OBJECT_NAME":"ONEWEB-0096","OBJECT_ID":"2020-020R","EPOCH":"2026-01-01T04:41:57.262560","MEAN_MOTION":13.11418145,"ECCENTRICITY":0.00018325,"INCLINATION":87.8846,"RA_OF_ASC_NODE":54.3012,"ARG_OF_PERICENTER":99.3744,"MEAN_ANOMALY":260.7591,"EPHEMERIS_TYPE":0,"CLASSIFICATION_TYPE":"U","NORAD_CAT_ID":45439,"ELEMENT_SET_NO":999,"REV_AT_EPOCH":28077,"BSTAR":0.0011944582,"MEAN_MOTION_DOT":4.36e-6,"MEAN_MOTION_DDOT":0},{"OBJECT_NAME":"ONEWEB-0037","OBJECT_ID":"2020-020S","EPOCH":"2026-01-01T04:13:52.205952","MEAN_MOTION":13.11417294,"ECCENTRICITY":0.00018067,"INCLINATION":87.8855,"RA_OF_ASC_NODE":54.2767,"ARG_OF_PERICENTER":102.634,"MEAN_ANOMALY":257.499,"EPHEMERIS_TYPE":0,"CLASSIFICATION_TYPE":"U","NORAD_CAT_ID":45440,"ELEMENT_SET_NO":999,"REV_AT_EPOCH":28080,"BSTAR":-0.00092351109,"MEAN_MOTION_DOT":-3.15e-6,"MEAN_MOTION_DDOT":0},{"OBJECT_NAME":"ONEWEB-0042","OBJECT_ID":"2020-020T","EPOCH":"2026-01-01T02:37:14.143872","MEAN_MOTION":13.11417751,"ECCENTRICITY":0.00018614,"INCLINATION":87.8843,"RA_OF_ASC_NODE":54.3177,"ARG_OF_PERICENTER":101.655,"MEAN_ANOMALY":258.4787,"EPHEMERIS_TYPE":0,"CLASSIFICATION_TYPE":"U","NORAD_CAT_ID":45441,"ELEMENT_SET_NO":999,"REV_AT_EPOCH":28076,"BSTAR":-3.1546977e-5,"MEAN_MOTION_DOT":2.0e-8,"MEAN_MOTION_DDOT":0},{"OBJECT_NAME":"ONEWEB-0098","OBJECT_ID":"2020-020U","EPOCH":"2026-01-01T04:21:12.003552","MEAN_MOTION":13.11417874,"ECCENTRICITY":0.00016995,"INCLINATION":87.8844,"RA_OF_ASC_NODE":54.3152,"ARG_OF_PERICENTER":98.4747,"MEAN_ANOMALY":261.6573,"EPHEMERIS_TYPE":0,"CLASSIFICATION_TYPE":"U","NORAD_CAT_ID":45442,"ELEMENT_SET_NO":999,"REV_AT_EPOCH":28075,"BSTAR":-0.00052473692,"MEAN_MOTION_DOT":-1.73e-6,"MEAN_MOTION_DDOT":0},{"OBJECT_NAME":"ONEWEB-0055","OBJECT_ID":"2020-020V","EPOCH":"2026-01-01T03:56:46.681152","MEAN_MOTION":13.11416063,"ECCENTRICITY":0.00017039,"INCLINATION":87.8841,"RA_OF_ASC_NODE":54.319,"ARG_OF_PERICENTER":98.28,"MEAN_ANOMALY":261.8522,"EPHEMERIS_TYPE":0,"CLASSIFICATION_TYPE":"U","NORAD_CAT_ID":45443,"ELEMENT_SET_NO":999,"REV_AT_EPOCH":28072,"BSTAR":-0.0012987706,"MEAN_MOTION_DOT":-4.48e-6,"MEAN_MOTION_DDOT":0},{"OBJECT_NAME":"ONEWEB-0093","OBJECT_ID":"2020-020W","EPOCH":"2026-01-01T03:21:34.651296","MEAN_MOTION":13.11417556,"ECCENTRICITY":0.00022347,"INCLINATION":87.884,"RA_OF_ASC_NODE":54.3113,"ARG_OF_PERICENTER":97.324,"MEAN_ANOMALY":262.8142,"EPHEMERIS_TYPE":0,"CLASSIFICATION_TYPE":"U","NORAD_CAT_ID":45444,"ELEMENT_SET_NO":999,"REV_AT_EPOCH":28078,"BSTAR":0.0012054384,"MEAN_MOTION_DOT":4.4e-6,"MEAN_MOTION_DDOT":0},{"OBJECT_NAME":"ONEWEB-0029","OBJECT_ID":"2020-020X","EPOCH":"2026-01-01T03:44:33.524448","MEAN_MOTION":13.11414531,"ECCENTRICITY":0.00018756,"INCLINATION":87.884,"RA_OF_ASC_NODE":54.3205,"ARG_OF_PERICENTER":96.4332,"MEAN_ANOMALY":263.701,"EPHEMERIS_TYPE":0,"CLASSIFICATION_TYPE":"U","NORAD_CAT_ID":45445,"ELEMENT_SET_NO":999,"REV_AT_EPOCH":28076,"BSTAR":-0.00047299485,"MEAN_MOTION_DOT":-1.55e-6,"MEAN_MOTION_DDOT":0},{"OBJECT_NAME":"ONEWEB-0068","OBJECT_ID":"2020-020Y","EPOCH":"2026-01-01T05:11:03.522336","MEAN_MOTION":13.1141514,"ECCENTRICITY":0.00019537,"INCLINATION":87.8844,"RA_OF_ASC_NODE":54.2979,"ARG_OF_PERICENTER":95.8073,"MEAN_ANOMALY":264.3278,"EPHEMERIS_TYPE":0,"CLASSIFICATION_TYPE":"U","NORAD_CAT_ID":45446,"ELEMENT_SET_NO":999,"REV_AT_EPOCH":28071,"BSTAR":0.0014900703,"MEAN_MOTION_DOT":5.41e-6,"MEAN_MOTION_DDOT":0},{"OBJECT_NAME":"ONEWEB-0046","OBJECT_ID":"2020-020Z","EPOCH":"2026-01-01T04:59:03.196896","MEAN_MOTION":13.11417989,"ECCENTRICITY":0.00020218,"INCLINATION":87.8841,"RA_OF_ASC_NODE":54.307,"ARG_OF_PERICENTER":103.3585,"MEAN_ANOMALY":256.7769,"EPHEMERIS_TYPE":0,"CLASSIFICATION_TYPE":"U","NORAD_CAT_ID":45447,"ELEMENT_SET_NO":999,"REV_AT_EPOCH":28072,"BSTAR":0.0021096091,"MEAN_MOTION_DOT":7.6e-6,"MEAN_MOTION_DDOT":0},{"OBJECT_NAME":"ONEWEB-0063","OBJECT_ID":"2020-020AA","EPOCH":"2026-01-01T03:50:40.168032","MEAN_MOTION":13.11415158,"ECCENTRICITY":0.00019188,"INCLINATION":87.8839,"RA_OF_ASC_NODE":54.3144,"ARG_OF_PERICENTER":106.3055,"MEAN_ANOMALY":253.8284,"EPHEMERIS_TYPE":0,"CLASSIFICATION_TYPE":"U","NORAD_CAT_ID":45448,"ELEMENT_SET_NO":999,"REV_AT_EPOCH":28080,"BSTAR":-0.0011278862,"MEAN_MOTION_DOT":-3.87e-6,"MEAN_MOTION_DDOT":0},{"OBJECT_NAME":"ONEWEB-0019","OBJECT_ID":"2020-020AB","EPOCH":"2026-01-01T04:46:35.481792","MEAN_MOTION":13.11416312,"ECCENTRICITY":0.00016839,"INCLINATION":87.8831,"RA_OF_ASC_NODE":54.3084,"ARG_OF_PERICENTER":95.9575,"MEAN_ANOMALY":264.1745,"EPHEMERIS_TYPE":0,"CLASSIFICATION_TYPE":"U","NORAD_CAT_ID":45449,"ELEMENT_SET_NO":999,"REV_AT_EPOCH":28065,"BSTAR":0.0014347376,"MEAN_MOTION_DOT":5.21e-6,"MEAN_MOTION_DDOT":0},{"OBJECT_NAME":"ONEWEB-0094","OBJECT_ID":"2020-020AC","EPOCH":"2026-01-01T03:26:27.739968","MEAN_MOTION":13.17648413,"ECCENTRICITY":0.00017775,"INCLINATION":87.9099,"RA_OF_ASC_NODE":39.0446,"ARG_OF_PERICENTER":91.7007,"MEAN_ANOMALY":268.4328,"EPHEMERIS_TYPE":0,"CLASSIFICATION_TYPE":"U","NORAD_CAT_ID":45450,"ELEMENT_SET_NO":999,"REV_AT_EPOCH":28431,"BSTAR":-2.6807625e-5,"MEAN_MOTION_DOT":2.0e-8,"MEAN_MOTION_DDOT":0},{"OBJECT_NAME":"ONEWEB-0087","OBJECT_ID":"2020-020AD","EPOCH":"2026-01-01T04:05:07.084896","MEAN_MOTION":13.11418288,"ECCENTRICITY":0.00019799,"INCLINATION":87.8854,"RA_OF_ASC_NODE":54.2729,"ARG_OF_PERICENTER":92.4081,"MEAN_ANOMALY":267.7274,"EPHEMERIS_TYPE":0,"CLASSIFICATION_TYPE":"U","NORAD_CAT_ID":45451,"ELEMENT_SET_NO":999,"REV_AT_EPOCH":28069,"BSTAR":-0.001300601,"MEAN_MOTION_DOT":-4.48e-6,"MEAN_MOTION_DDOT":0}]
