ONEWEB-0083             
1 45435U 20020M   26001.19496001  .00000394  00000+0  10755-2 0  9999
2 45435  87.8844  54.3019 0001704  98.0642 262.0679 13.11417257280784
ONEWEB-0095             
1 45436U 20020N   26001.18576448  .00000016  00000+0  81490-5 0  9991
2 45436  87.8841  54.3142 0001890 124.3382 235.7925 13.11419186280783
ONEWEB-0092             
1 45437U 20020P   26001.15765491 -.00000275  00000+0 -81261-3 0  9990
2 45437  87.8837  54.3188 0001833 107.3379 252.7949 13.11414650280891
ONEWEB-0085             
1 45438U 20020Q   26001.19410727  .00000300  00000+0  80920-3 0  9992
2 45438  87.8837  54.3195 0001787 100.1489 259.9841 13.11417488280781
ONEWEB-0096             
1 45439U 20020R   26001.19580165  .00000436  00000+0  11945-2 0  9997
2 45439  87.8846  54.3012 0001832  99.3744 260.7591 13.11418145280776
ONEWEB-0037             
1 45440U 20020S   26001.17629868 -.00000315  00000+0 -92351-3 0  9990
2 45440  87.8855  54.2767 0001806 102.6340 257.4990 13.11417294280809
ONEWEB-0042             
1 45441U 20020T   26001.10919148  .00000002  00000+0 -31547-4 0  9990
2 45441  87.8843  54.3177 0001861 101.6550 258.4787 13.11417751280764
ONEWEB-0098             
1 45442U 20020U   26001.18138893 -.00000173  00000+0 -52474-3 0  9990
2 45442  87.8844  54.3152 0001699  98.4747 261.6573 13.11417874280753
ONEWEB-0055             
1 45443U 20020V   26001.16442918 -.00000448  00000+0 -12988-2 0  9995
2 45443  87.8841  54.3190 0001703  98.2800 261.8522 13.11416063280729
ONEWEB-0093             
1 45444U 20020W   26001.13998439  .00000440  00000+0  12054-2 0  9991
2 45444  87.8840  54.3113 0002234  97.3240 262.8142 13.11417556280785
ONEWEB-0029             
1 45445U 20020X   26001.15594357 -.00000155  00000+0 -47299-3 0  9990
2 45445  87.8840  54.3205 0001875  96.4332 263.7010 13.11414531280762
ONEWEB-0068             
1 45446U 20020Y   26001.21601299  .00000541  00000+0  14901-2 0  9992
2 45446  87.8844  54.2979 0001953  95.8073 264.3278 13.11415140280711
ONEWEB-0046             
1 45447U 20020Z   26001.20767589  .00000760  00000+0  21096-2 0  9993
2 45447  87.8841  54.3070 0002021 103.3585 256.7769 13.11417989280726
ONEWEB-0063             
1 45448U 20020AA  26001.16018713 -.00000387  00000+0 -11279-2 0  9996
2 45448  87.8839  54.3144 0001918 106.3055 253.8284 13.11415158280800
ONEWEB-0019             
1 45449U 20020AB  26001.19902178  .00000521  00000+0  14347-2 0  9994
2 45449  87.8831  54.3084 0001683  95.9575 264.1745 13.11416312280658
ONEWEB-0094             
1 45450U 20020AC  26001.14337662  .00000002  00000+0 -26808-4 0  9993
2 45450  87.9099  39.0446 0001777  91.7007 268.4328 13.17648413284313
ONEWEB-0087             
1 45451U 20020AD  26001.17022089 -.00000448  00000+0 -13006-2 0  9990
2 45451  87.8854  54.2729 0001979  92.4081 267.7274 13.11418288280697
